satname,norad_id,inclination_deg,eccentricity,mean_motion_rev_per_day,perigee_km,apogee_km,l1,l2
STARLINK-1402,45685,53.0488,0.0004185,15.48758779,417.5108177070897,423.201156337228,1 45685U 20035AE  26092.75640733  .00122559  00000+0  22190-2 0  9991,2 45685  53.0488 268.4712 0004185 294.8635  65.1937 15.48758779323070
STARLINK-1404,45686,53.1604,0.0001251,15.37278988,453.3049180535263,455.01435867244527,1 45686U 20035AF  26092.82342237  .00018247  00000+0  50170-3 0  9996,2 45686  53.1604 297.1808 0001251  97.5469 262.5677 15.37278988322677
STARLINK-1413,45689,53.159,0.0001642,15.30178975,474.152516280471,476.4031777162245,1 45689U 20035AJ  26092.86866514 -.00000699  00000+0 -11477-4 0  9994,2 45689  53.1590 297.2701 0001642  82.9470 277.1717 15.30178975322597
STARLINK-1417,45693,53.0509,0.0001937,15.13651598,523.7380795595473,526.4123839781341,1 45693U 20035AN  26092.30969977  .00044092  00000+0  24258-2 0  9997,2 45693  53.0509 307.1539 0001937 311.5668  48.5157 15.13651598322471
STARLINK-1420,45695,53.0497,0.0004078,15.58027352,390.6053239699795,396.1281624229314,1 45695U 20035AQ  26090.90442921  .00125616  00000+0  16250-2 0  9993,2 45695  53.0497 274.8919 0004078 223.6914 136.3775 15.58027352322811
STARLINK-1422,45696,53.1602,0.0001099,15.30193338,474.48177544414193,475.9881466011748,1 45696U 20035AR  26092.87602053  .00001866  00000+0  75139-4 0  9999,2 45696  53.1602 297.2386 0001099  95.5005 264.6121 15.30193338322677
STARLINK-1351,45697,53.0484,0.0004484,15.56990158,393.3359581674795,399.411339317272,1 45697U 20035AS  26092.91668981  .00203137  00000+0  27010-2 0  9995,2 45697  53.0484 264.5652 0004484 254.9310 249.6897 15.56990158  5910
STARLINK-1400,45700,53.0475,0.000599,15.54931782,398.2894256518366,406.4124502014738,1 45700U 20035AV  26092.91668981  .00185667  00000+0  26694-2 0  9994,2 45700  53.0475 266.2434 0005990 196.7682 308.1927 15.54931782  5900
STARLINK-1403,45701,53.1575,0.000115,15.29353439,476.9554875745953,478.53234018478815,1 45701U 20035AW  26092.51768212  .00000270  00000+0  21673-4 0  9999,2 45701  53.1575 285.9694 0001150  94.9345 265.1787 15.29353439322792
STARLINK-1407,45703,53.031,0.0004147,15.65045837,370.3071952451819,375.9066769657884,1 45703U 20035AY  26092.55461697  .00070161  00000+0  69925-3 0  9999,2 45703  53.0310 199.0124 0004147 204.7459 155.3357 15.65045837324020
STARLINK-1411,45706,53.0406,0.0003751,15.67719164,362.90027707686113,367.9593008819538,1 45706U 20035BB  26092.91668981  .00246891  00000+0  21507-2 0  9995,2 45706  53.0406 222.5781 0003751 295.8506 149.2325 15.67719164  5895
STARLINK-1423,45710,53.047,0.000633,15.57393752,390.91567752800165,399.49072622357744,1 45710U 20035BF  26092.91668981  .00203687  00000+0  26668-2 0  9999,2 45710  53.0470 264.8642 0006330 222.2452 317.0505 15.57393752  5510
STARLINK-1433,45711,53.0469,0.0005955,15.59686839,384.5331253458826,392.5922646826439,1 45711U 20035BG  26092.91668981  .00160336  00000+0  19373-2 0  9998,2 45711  53.0469 263.5448 0005955 216.1635   4.2835 15.59686839  5914
STARLINK-1434,45712,53.0509,0.0003457,15.28971736,476.51442672148187,481.25537166258255,1 45712U 20035BH  26092.77221170  .00061830  00000+0  21622-2 0  9997,2 45712  53.0509 268.3014 0003457 183.4577 176.6398 15.28971736323075
STARLINK-1465,45731,53.0489,0.000621,15.53620556,401.9524176432378,410.3785213103283,1 45731U 20038B   26092.34495098  .00109400  00000+0  16687-2 0  9997,2 45731  53.0489 109.3371 0006210  17.9435 342.1792 15.53620556320059
STARLINK-1471,45735,53.0478,0.0001683,15.50239194,414.88365161454567,417.17056725378006,1 45735U 20038F   26092.12381225  .00031519  00000+0  55402-3 0  9997,2 45735  53.0478  29.6434 0001683  37.8934 322.2193 15.50239194321167
STARLINK-1480,45741,53.0514,0.000231,15.55659539,398.6703040872717,401.8019124632956,1 45741U 20038M   26092.30944109  .00128490  00000+0  18146-2 0  9998,2 45741  53.0514 103.6888 0002310  76.2690 283.8578 15.55659539320145
STARLINK-1500,45744,53.0364,0.0003216,15.36130041,455.3676582321132,459.76438241478445,1 45744U 20038Q   26092.69605997  .00038807  00000+0  10917-2 0  9992,2 45744  53.0364  80.0263 0003216  18.3411 341.7706 15.36130041320508
STARLINK-1504,45746,53.0242,0.0001046,15.54880331,401.79126001024815,403.20976937832165,1 45746U 20038S   26092.54716354  .00048453  00000+0  71571-3 0  9990,2 45746  53.0242  26.9455 0001046  70.7580 289.3543 15.54880331321225
STARLINK-1506,45747,53.0733,0.000327,15.26749307,483.2931958642275,487.78203906404815,1 45747U 20038T   26092.68902899  .00030233  00000+0  11427-2 0  9997,2 45747  53.0733  91.3064 0003270 353.7239   6.3717 15.26749307320358
STARLINK-1464,45751,53.0494,0.0003956,15.46641988,423.86574707468117,429.24962150889314,1 45751U 20038X   26092.69257042  .00087643  00000+0  17180-2 0  9995,2 45751  53.0494  90.2758 0003956  27.0720 333.0492 15.46641988320361
STARLINK-1477,45754,53.0486,0.0003219,15.15497706,517.2476416993541,521.6883197859561,1 45754U 20038AA  26092.31598156  .00033666  00000+0  17646-2 0  9994,2 45754  53.0486 105.4681 0003219  47.7947 312.3319 15.15497706320115
STARLINK-1478,45755,53.0483,0.0004067,15.59416252,386.5931006803203,392.09777089358977,1 45755U 20038AB  26092.91668981  .00001375  00000+0  23453-4 0  9992,2 45755  53.0483  80.3618 0004067  22.4172 111.6609 15.59416252  5876
STARLINK-1493,45759,53.0503,0.0005106,15.54278926,400.78642625631346,407.7125993631944,1 45759U 20038AF  26092.91668981  .00172493  00000+0  25451-2 0  9994,2 45759  53.0503  87.8585 0005106  82.0813 278.2753 15.54278926  5911
STARLINK-1494,45760,53.0481,0.0006038,15.79519278,327.7502621997746,335.85318420191106,1 45760U 20038AG  26092.91668981  .00205802  00000+0  10857-2 0  9991,2 45760  53.0481  30.7005 0006038 100.0604 316.1241 15.79519278  5982
STARLINK-1502,45764,53.0488,0.0006129,15.50837207,410.1173417006612,418.44348696715133,1 45764U 20038AL  26092.68868002  .00097357  00000+0  16445-2 0  9998,2 45764  53.0488  91.0649 0006129  70.2860 289.8809 15.50837207320351
STARLINK-1470,45772,53.0456,0.0003349,15.30029442,473.429013997059,478.0197303441382,1 45772U 20038AU  26092.33682524  .00081124  00000+0  27353-2 0  9997,2 45772  53.0456  64.3929 0003349  81.5880 278.5499 15.30029442320696
STARLINK-1482,45773,53.159,0.0002907,15.32062306,467.6695380914989,471.6508473793556,1 45773U 20038AV  26092.24841703  .00096275  00000+0  30396-2 0  9998,2 45773  53.1590  81.4702 0002907  86.4717 273.6617 15.32062306320458
STARLINK-1496,45780,53.0495,7.69e-05,15.52341306,409.3701536507051,410.4141525344512,1 45780U 20038BC  26092.91668981  .00133544  00000+0  21264-2 0  9990,2 45780  53.0495  61.5356 0000769   8.2416 180.1276 15.52341306  5843
STARLINK-1513,45786,53.159,0.0001397,15.30196147,474.2691589156948,476.18398869821704,1 45786U 20038BJ  26092.66102089  .00000524  00000+0  29831-4 0  9991,2 45786  53.1590  79.8082 0001397 120.6716 239.4422 15.30196147320516
STARLINK-1522,46027,53.0647,0.0002577,15.10232905,533.7074668315599,537.270749727767,1 46027U 20055A   26092.51590805  .00034003  00000+0  20638-2 0  9993,2 46027  53.0647  19.0140 0002577 117.1999 242.9254 15.10232905312483
STARLINK-1523,46028,53.1597,0.0001692,15.30199192,474.0578943843939,476.37706954108944,1 46028U 20055B   26092.49279174  .00003795  00000+0  14019-3 0  9995,2 46028  53.1597  16.1425 0001692  93.8523 266.2671 15.30199192312544
STARLINK-1526,46029,53.1554,0.0001589,15.29369448,476.6066783268734,478.7854620765838,1 46029U 20055C   26092.81113559  .00009909  00000+0  35511-3 0  9999,2 46029  53.1554  14.6532 0001589  87.1291 272.9891 15.29369448312586
STARLINK-1555,46032,53.1606,0.000136,15.30214518,474.239671644792,476.10377161707584,1 46032U 20055F   26092.20940831  .00020444  00000+0  70017-3 0  9994,2 46032  53.1606  17.4538 0001360  98.8088 261.3067 15.30214518312491
STARLINK-1556,46033,53.1568,0.0001669,15.29356185,476.59146211049665,478.87995242018224,1 46033U 20055G   26092.51281425  .00003017  00000+0  11686-3 0  9990,2 46033  53.1568  15.9932 0001669  85.1446 274.9745 15.29356185312510
STARLINK-1557,46034,53.1563,0.0001371,15.29351291,476.8103911926519,478.6902754994544,1 46034U 20055H   26092.50657778  .00003644  00000+0  13858-3 0  9997,2 46034  53.1563  15.9235 0001371  68.9195 291.1952 15.29351291312516
STARLINK-1558,46035,53.1623,0.0001172,15.30194774,474.42745866642326,476.0338880490581,1 46035U 20055J   26092.79092530  .00003964  00000+0  14590-3 0  9997,2 46035  53.1623  14.7629 0001172  83.4431 276.6703 15.30194774312584
STARLINK-1560,46036,53.1567,0.0001576,15.293584,476.6486031043669,478.80957209517874,1 46036U 20055K   26092.76474771  .00004237  00000+0  15907-3 0  9993,2 46036  53.1567  14.7687 0001576  86.7043 273.4137 15.29358400312581
STARLINK-1567,46038,53.0899,0.0001715,15.64684897,372.9871267564531,375.3031595315506,1 46038U 20055M   26092.96898094  .01050024  00000+0  96810-2 0  9992,2 46038  53.0899  11.4722 0001715 110.1601 249.9598 15.64684897312637
STARLINK-1569,46039,53.1601,9.97e-05,15.30183247,474.5818071254489,475.94837550245757,1 46039U 20055N   26092.79409215  .00004925  00000+0  17839-3 0  9990,2 46039  53.1601  14.7419 0000997  50.1388 309.9700 15.30183247312576
STARLINK-1582,46043,53.1614,0.0001081,15.30207483,474.4518816777463,475.9335715646421,1 46043U 20055S   26092.80040135  .00010453  00000+0  36446-3 0  9997,2 46043  53.1614  14.7041 0001081  74.4665 285.6455 15.30207483312574
STARLINK-1591,46045,53.163,0.0001607,15.30194403,474.13044474027265,476.33311746651907,1 46045U 20055U   26092.50016562  .00006259  00000+0  22332-3 0  9991,2 46045  53.1630  16.1080 0001607  92.3501 267.7684 15.30194403312511
STARLINK-1524,46047,53.1617,0.0001186,15.30199397,474.40406210025776,476.02967763819015,1 46047U 20055W   26092.88622218  .00005075  00000+0  18336-3 0  9999,2 46047  53.1617   1.4476 0001186  82.8474 277.2662 15.30199397312776
